[
    {
        "Altitude(m)": 553593.2359613327,
        "Argument of Periapsis(deg)": 0.006622991110713501,
        "Eccentricity": 0.0,
        "Inclination(deg)": 53.0,
        "Latitude(deg)": 16.505983331504748,
        "Longitude(deg)": 31.396067149250673,
        "Mean Anomaly(deg)": -200.81750713242246,
        "RAAN(deg)": 324.990143368528,
        "Satellite Name": "Starlink Shell 1 1439",
        "Satellite Number": 1439,
        "Semi-Major Axis(m)": 6931778.249405717,
        "Time(s)": 190
    },
    {
        "Altitude(m)": 553571.061815793,
        "Argument of Periapsis(deg)": 0.0069715695902247375,
        "Eccentricity": 0.0,
        "Inclination(deg)": 53.0,
        "Latitude(deg)": 16.01442698868724,
        "Longitude(deg)": 31.763403085443674,
        "Mean Anomaly(deg)": -200.19067592886574,
        "RAAN(deg)": 324.9896245984505,
        "Satellite Name": "Starlink Shell 1 1439",
        "Satellite Number": 1439,
        "Semi-Major Axis(m)": 6931778.249405717,
        "Time(s)": 200
    },
    {
        "Altitude(m)": 553551.2675333873,
        "Argument of Periapsis(deg)": 0.007320148069735974,
        "Eccentricity": 0.0,
        "Inclination(deg)": 53.0,
        "Latitude(deg)": 15.52207795826903,
        "Longitude(deg)": 32.12874155053455,
        "Mean Anomaly(deg)": -199.56384472530897,
        "RAAN(deg)": 324.98910582837306,
        "Satellite Name": "Starlink Shell 1 1439",
        "Satellite Number": 1439,
        "Semi-Major Axis(m)": 6931778.249405717,
        "Time(s)": 210
    },
    {
        "Altitude(m)": 553533.8849823747,
        "Argument of Periapsis(deg)": 0.007668726549247212,
        "Eccentricity": 0.0,
        "Inclination(deg)": 53.0,
        "Latitude(deg)": 15.028965537015882,
        "Longitude(deg)": 32.49215305330382,
        "Mean Anomaly(deg)": -198.93701352175228,
        "RAAN(deg)": 324.9885870582956,
        "Satellite Name": "Starlink Shell 1 1439",
        "Satellite Number": 1439,
        "Semi-Major Axis(m)": 6931778.249405717,
        "Time(s)": 220
    },
    {
        "Altitude(m)": 553518.9449524282,
        "Argument of Periapsis(deg)": 0.00801730502875845,
        "Eccentricity": 0.0,
        "Inclination(deg)": 53.0,
        "Latitude(deg)": 14.535118597156421,
        "Longitude(deg)": 32.853707286305465,
        "Mean Anomaly(deg)": -198.31018231819556,
        "RAAN(deg)": 324.98806828821813,
        "Satellite Name": "Starlink Shell 1 1439",
        "Satellite Number": 1439,
        "Semi-Major Axis(m)": 6931778.249405717,
        "Time(s)": 230
    },
    {
        "Altitude(m)": 553506.4771366911,
        "Argument of Periapsis(deg)": 0.008365883508269684,
        "Eccentricity": 0.0,
        "Inclination(deg)": 53.0,
        "Latitude(deg)": 14.04056560356661,
        "Longitude(deg)": 33.213473657096834,
        "Mean Anomaly(deg)": -197.6833511146389,
        "RAAN(deg)": 324.9875495181406,
        "Satellite Name": "Starlink Shell 1 1439",
        "Satellite Number": 1439,
        "Semi-Major Axis(m)": 6931778.249405717,
        "Time(s)": 240
    },
    {
        "Altitude(m)": 553496.5101143675,
        "Argument of Periapsis(deg)": 0.008714461987780921,
        "Eccentricity": 0.0,
        "Inclination(deg)": 53.0,
        "Latitude(deg)": 13.545334630590242,
        "Longitude(deg)": 33.57152030663302,
        "Mean Anomaly(deg)": -197.0565199110821,
        "RAAN(deg)": 324.98703074806315,
        "Satellite Name": "Starlink Shell 1 1439",
        "Satellite Number": 1439,
        "Semi-Major Axis(m)": 6931778.249405717,
        "Time(s)": 250
    },
    {
        "Altitude(m)": 553489.0713338336,
        "Argument of Periapsis(deg)": 0.009063040467292158,
        "Eccentricity": 0.0,
        "Inclination(deg)": 53.0,
        "Latitude(deg)": 13.04945337851458,
        "Longitude(deg)": 33.92791464054952,
        "Mean Anomaly(deg)": -196.4296887075254,
        "RAAN(deg)": 324.98651197798574,
        "Satellite Name": "Starlink Shell 1 1439",
        "Satellite Number": 1439,
        "Semi-Major Axis(m)": 6931778.249405717,
        "Time(s)": 260
    },
    {
        "Altitude(m)": 553484.1870962905,
        "Argument of Periapsis(deg)": 0.009411618946803396,
        "Eccentricity": 0.0,
        "Inclination(deg)": 53.0,
        "Latitude(deg)": 12.552949189709432,
        "Longitude(deg)": 34.28272386043948,
        "Mean Anomaly(deg)": -195.80285750396868,
        "RAAN(deg)": 324.9859932079082,
        "Satellite Name": "Starlink Shell 1 1439",
        "Satellite Number": 1439,
        "Semi-Major Axis(m)": 6931778.249405717,
        "Time(s)": 270
    },
    {
        "Altitude(m)": 553481.8825400182,
        "Argument of Periapsis(deg)": 0.009760197426314633,
        "Eccentricity": 0.0,
        "Inclination(deg)": 53.0,
        "Latitude(deg)": 12.055849064441114,
        "Longitude(deg)": 34.636013982235134,
        "Mean Anomaly(deg)": -195.17602630041202,
        "RAAN(deg)": 324.9854744378307,
        "Satellite Name": "Starlink Shell 1 1439",
        "Satellite Number": 1439,
        "Semi-Major Axis(m)": 6931778.249405717,
        "Time(s)": 280
    },
    {
        "Altitude(m)": 553482.1816251546,
        "Argument of Periapsis(deg)": 0.01010877590582587,
        "Eccentricity": 0.0,
        "Inclination(deg)": 53.0,
        "Latitude(deg)": 11.558179676378346,
        "Longitude(deg)": 34.98785036742388,
        "Mean Anomaly(deg)": -194.5491950968553,
        "RAAN(deg)": 324.9849556677533,
        "Satellite Name": "Starlink Shell 1 1439",
        "Satellite Number": 1439,
        "Semi-Major Axis(m)": 6931778.249405717,
        "Time(s)": 290
    },
    {
        "Altitude(m)": 553485.1071190424,
        "Argument of Periapsis(deg)": 0.010457354385337106,
        "Eccentricity": 0.0,
        "Inclination(deg)": 53.0,
        "Latitude(deg)": 11.05996738780039,
        "Longitude(deg)": 35.33829825421323,
        "Mean Anomaly(deg)": -193.92236389329852,
        "RAAN(deg)": 324.98443689767583,
        "Satellite Name": "Starlink Shell 1 1439",
        "Satellite Number": 1439,
        "Semi-Major Axis(m)": 6931778.249405717,
        "Time(s)": 300
    },
    {
        "Altitude(m)": 553490.6805822077,
        "Argument of Periapsis(deg)": 0.010805932864848343,
        "Eccentricity": 0.0,
        "Inclination(deg)": 53.0,
        "Latitude(deg)": 10.561238264517096,
        "Longitude(deg)": 35.68742177576063,
        "Mean Anomaly(deg)": -193.29553268974183,
        "RAAN(deg)": 324.9839181275983,
        "Satellite Name": "Starlink Shell 1 1439",
        "Satellite Number": 1439,
        "Semi-Major Axis(m)": 6931778.249405717,
        "Time(s)": 310
    },
    {
        "Altitude(m)": 553498.9223548807,
        "Argument of Periapsis(deg)": 0.01115451134435958,
        "Eccentricity": 0.0,
        "Inclination(deg)": 53.0,
        "Latitude(deg)": 10.062018090518393,
        "Longitude(deg)": 36.03528449120525,
        "Mean Anomaly(deg)": -192.6687014861851,
        "RAAN(deg)": 324.98339935752085,
        "Satellite Name": "Starlink Shell 1 1439",
        "Satellite Number": 1439,
        "Semi-Major Axis(m)": 6931778.249405717,
        "Time(s)": 320
    },
    {
        "Altitude(m)": 553509.8515441376,
        "Argument of Periapsis(deg)": 0.011503089823870818,
        "Eccentricity": 0.0,
        "Inclination(deg)": 53.0,
        "Latitude(deg)": 9.562332382364302,
        "Longitude(deg)": 36.38194991661964,
        "Mean Anomaly(deg)": -192.04187028262842,
        "RAAN(deg)": 324.9828805874434,
        "Satellite Name": "Starlink Shell 1 1439",
        "Satellite Number": 1439,
        "Semi-Major Axis(m)": 6931778.249405717,
        "Time(s)": 330
    },
    {
        "Altitude(m)": 553523.4860116483,
        "Argument of Periapsis(deg)": 0.011851668303382053,
        "Eccentricity": 0.0,
        "Inclination(deg)": 53.0,
        "Latitude(deg)": 9.06220640332315,
        "Longitude(deg)": 36.72748054300554,
        "Mean Anomaly(deg)": -191.41503907907165,
        "RAAN(deg)": 324.9823618173659,
        "Satellite Name": "Starlink Shell 1 1439",
        "Satellite Number": 1439,
        "Semi-Major Axis(m)": 6931778.249405717,
        "Time(s)": 340
    },
    {
        "Altitude(m)": 553539.8423620332,
        "Argument of Periapsis(deg)": 0.012200246782893292,
        "Eccentricity": 0.0,
        "Inclination(deg)": 53.0,
        "Latitude(deg)": 8.561665177278025,
        "Longitude(deg)": 37.07193836707205,
        "Mean Anomaly(deg)": -190.78820787551493,
        "RAAN(deg)": 324.98184304728846,
        "Satellite Name": "Starlink Shell 1 1439",
        "Satellite Number": 1439,
        "Semi-Major Axis(m)": 6931778.249405717,
        "Time(s)": 350
    },
    {
        "Altitude(m)": 553558.9359318326,
        "Argument of Periapsis(deg)": 0.012548825262404526,
        "Eccentricity": 0.0,
        "Inclination(deg)": 53.0,
        "Latitude(deg)": 8.060733502408892,
        "Longitude(deg)": 37.41538542192287,
        "Mean Anomaly(deg)": -190.1613766719583,
        "RAAN(deg)": 324.98132427721094,
        "Satellite Name": "Starlink Shell 1 1439",
        "Satellite Number": 1439,
        "Semi-Major Axis(m)": 6931778.249405717,
        "Time(s)": 360
    },
    {
        "Altitude(m)": 553580.7807791196,
        "Argument of Periapsis(deg)": 0.012897403741915765,
        "Eccentricity": 0.0,
        "Inclination(deg)": 53.0,
        "Latitude(deg)": 7.559435964661229,
        "Longitude(deg)": 37.75788279477619,
        "Mean Anomaly(deg)": -189.5345454684016,
        "RAAN(deg)": 324.9808055071335,
        "Satellite Name": "Starlink Shell 1 1439",
        "Satellite Number": 1439,
        "Semi-Major Axis(m)": 6931778.249405717,
        "Time(s)": 370
    }
]